[{"OBJECT_NAME":"FORMOSAT 7-3","OBJECT_ID":"2019-036E","EPOCH":"2026-03-09T19:49:52.754592","MEAN_MOTION":15.08933962,"ECCENTRICITY":0.00010606,"INCLINATION":23.9981,"RA_OF_ASC_NODE":141.9797,"ARG_OF_PERICENTER":150.4425,"MEAN_ANOMALY":209.6139,"EPHEMERIS_TYPE":0,"CLASSIFICATION_TYPE":"U","NORAD_CAT_ID":44343,"ELEMENT_SET_NO":999,"REV_AT_EPOCH":36821,"BSTAR":0.00037650049,"MEAN_MOTION_DOT":6.445e-5,"MEAN_MOTION_DDOT":0},{"OBJECT_NAME":"STARLINK-3245","OBJECT_ID":"2021-125Q","EPOCH":"2026-03-09T18:27:18.975168","MEAN_MOTION":15.08847997,"ECCENTRICITY":0.00011922,"INCLINATION":53.2168,"RA_OF_ASC_NODE":248.7659,"ARG_OF_PERICENTER":85.6681,"MEAN_ANOMALY":274.4448,"EPHEMERIS_TYPE":0,"CLASSIFICATION_TYPE":"U","NORAD_CAT_ID":50170,"ELEMENT_SET_NO":999,"REV_AT_EPOCH":23660,"BSTAR":3.051661e-6,"MEAN_MOTION_DOT":-2.39e-6,"MEAN_MOTION_DDOT":0}]
