FORMOSAT 7-3            
1 44343U 19036E   26068.82630502  .00006445  00000+0  37650-3 0  9997
2 44343  23.9981 141.9797 0001061 150.4425 209.6139 15.08933962368215
STARLINK-3245           
1 50170U 21125Q   26068.76896961 -.00000239  00000+0  30517-5 0  9993
2 50170  53.2168 248.7659 0001192  85.6681 274.4448 15.08847997236606
